IRIDIUM 126             
1 42809U 17039G   25345.54109805  .00000418  00000+0  14235-3 0  9994
2 42809  86.3969  72.0871 0001881  98.5244 261.6165 14.34218106443054
IRIDIUM 124             
1 42810U 17039H   25345.51247003  .00000726  00000+0  20997-3 0  9990
2 42810  86.4496   8.8208 0002240  96.9561 263.1895 14.43282264448044
IRIDIUM 128             
1 42811U 17039J   25345.60160552  .00000569  00000+0  19606-3 0  9994
2 42811  86.3963 103.5953 0002341 100.5565 259.5894 14.34218880443092
IRIDIUM 121             
1 42812U 17039K   25345.49035791  .00000257  00000+0  84639-4 0  9991
2 42812  86.3965  72.1345 0002199  95.8162 264.3285 14.34218991442923
IRIDIUM 133             
1 42955U 17061A   25345.63332920  .00000527  00000+0  18119-3 0  9993
2 42955  86.3967 103.6953 0002066  97.7044 262.4386 14.34215883427898
IRIDIUM 100             
1 42956U 17061B   25345.41766361  .00000180  00000+0  57093-4 0  9990
2 42956  86.3963 103.7084 0001959  97.6614 262.4804 14.34216369427865
IRIDIUM 122             
1 42957U 17061C   25345.38595719  .00000169  00000+0  53272-4 0  9996
2 42957  86.3963 103.7213 0001968  97.5525 262.5894 14.34218271427864
IRIDIUM 129             
1 42958U 17061D   25345.62063238  .00000543  00000+0  18683-3 0  9992
2 42958  86.3965 103.6883 0001838  86.0053 274.1353 14.34218130427913
